C/2025 K1-C,e,147.8466,97.5298,270.9205,1556,0.0000161,0.99978562,0.0000,10/08.4393/2025,2000,g 14.0,4.0
# From MPEC 2025-XC1
C/2025 K1-D,h,10/08.4565/2025,147.9349,97.6707,271.4321,1.002528,0.336321,2000,14.0,4.0
# From MPC186633
C/2025 K2 (PANSTARRS),e,113.9794,113.8290,232.4627,25.30973,0.0077406,0.88685502,0.5859,01/09.0/2026,2000,g 13.7,4.0
# From MPC188413
C/2025 K3 (PANSTARRS),h,12/14.1902/2028,104.9359,350.6397,188.5972,1.001401,3.470266,2000,6.4,4.0
# From MPEC 2025-XC7
C/2025 K4 (Siverd),e,38.5444,297.0824,326.9281,43.36628,0.0034512,0.94161069,0.5686,01/09.0/2026,2000,g 14.1,4.0
# From MPEC 2026-A24
C/2025 L1 (ATLAS),h,01/12.7438/2026,114.1362,208.1090,341.2567,1.001402,1.679550,2000,11.4,4.0
# From MPEC 2025-XC7
C/2025 L2 (MAPS),e,86.5838,134.9859,232.6422,490.0890,0.0000908,0.99421810,0.0000,12/20.6626/2025,2000,g 11.7,4.0
# From MPC188414
C/2025 M1 (PANSTARRS),e,64.8935,66.9582,230.4057,5368,0.0000025,0.99798248,0.0000,08/02.8812/2029,2000,g  2.9,4.0
# From MPEC 2025-UQ3
C/2025 M2 (PANSTARRS),h,11/23.4497/2027,173.2151,305.5343,96.7594,1.001988,2.720486,2000,13.4,4.0
# From MPC188414
C/2025 M3 (PANSTARRS),h,07/05.1357/2026,137.4241,65.2658,195.3747,1.019431,6.531958,2000,9.0,4.0
# From MPEC 2025-YF1
C/2025 N2 (ATLAS),h,12/10.8019/2024,81.6651,94.4639,230.0131,1.001941,8.982901,2000,5.1,4.0
# From MPC188414
C/2025 O2 (MAPS),e,134.5440,332.3114,280.2496,2482,0.0000080,0.99907776,0.0000,05/23.7250/2025,2000,g 14.3,4.0
# From MPC188414
A/2025 P1,e,117.7957,342.4198,334.5257,56.79316,0.0023028,0.96169027,0.6551,01/09.0/2026,2000,g 17.1,4.0
# From MPEC 2025-XC7
C/2025 Q1 (ATLAS),e,66.1612,326.9458,280.2329,1272,0.0000217,0.99205975,0.0000,07/11.8975/2024,2000,g  3.8,4.0
# From MPEC 2026-A24
C/2025 Q3 (ATLAS),e,90.1860,233.1439,218.4545,789.6222,0.0000444,0.99732462,0.0000,02/25.6386/2026,2000,g 12.2,4.0
# From MPEC 2026-A24
C/2025 R1 (ATLAS),e,110.0273,60.3969,77.5516,166.1585,0.0004602,0.98811251,0.0000,11/23.3377/2025,2000,g 14.0,4.0
# From MPEC 2026-A24
C/2025 R2 (SWAN),e,4.4729,335.3251,308.3610,86.52370,0.0012246,0.99417373,0.0000,09/12.8446/2025,2000,g 12.4,4.0
# From MPEC 2026-A24
C/2025 R3 (PANSTARRS),h,04/19.8955/2026,124.7306,38.6932,162.2259,1.000341,0.498613,2000,12.2,4.0
# From MPEC 2026-A24
A/2025 S2,e,96.6422,34.4731,31.5886,63.22550,0.0019605,0.97332977,0.0000,01/02.4136/2026,2000,g 16.0,2.0
# From MPEC 2025-XC7
A/2025 S3,e,103.5628,36.7300,71.1263,215.3980,0.0003118,0.98957983,0.0000,06/25.0922/2026,2000,g 15.0,2.0
# From MPEC 2026-A24
C/2025 T1 (ATLAS),e,123.4326,140.4947,114.1404,9761,0.0000010,0.99988640,0.0000,12/02.3748/2025,2000,g 14.7,4.0
# From MPEC 2026-A24
P/2025 U1 (Hogan),e,23.8308,234.9545,264.0548,5.902637,0.0687282,0.29428049,354.7658,01/09.0/2026,2000,g 11.7,4.0
# From MPEC 2026-A24
P/2025 UX109 (Ye),e,3.1815,197.9706,276.1271,3.800604,0.1330225,0.32390188,19.6596,01/09.0/2026,2000,g 13.7,4.0
# From MPEC 2026-A24
C/2025 V1 (Borisov),h,11/16.5430/2025,112.7095,91.8738,47.5688,1.007731,0.462682,2000,16.3,4.0
# From MPEC 2026-A24
C/2025 V2 (Rankin),h,03/23.0054/2027,37.2773,138.0824,102.7011,1.000653,1.953042,2000,9.0,4.0
# From MPEC 2025-YF1
C/2025 W1 (Sankovich),e,79.8004,95.8910,250.6360,11968,0.0000008,0.99965154,0.0000,02/17.7360/2025,2000,g  9.7,4.0
# From MPEC 2026-A24
C/2025 W2 (ATLAS),e,94.7104,90.8448,41.0346,26.93470,0.0070508,0.94604429,0.2268,01/09.0/2026,2000,g 17.9,4.0
# From MPEC 2026-A24
P/2025 W3 (Kresken),e,9.7511,60.0751,311.3081,2.547143,0.2424510,0.18033184,72.3313,01/09.0/2026,2000,g 17.2,4.0
# From MPEC 2026-A24
P/2025 W4 (PANSTARRS),e,1.2981,237.1196,172.2868,2.579229,0.2379410,0.21124920,22.9625,01/09.0/2026,2000,g 17.5,4.0
# From MPEC 2026-A24
C/2025 X1 (PANSTARRS),e,36.9565,95.6371,85.5412,33.72244,0.0050330,0.86145923,358.3119,01/09.0/2026,2000,g 10.2,4.0
# From MPEC 2026-A16
A/2025 Y1,e,14.5567,166.5523,124.2868,3121,0.0000057,0.99916576,0.0000,10/14.3494/2027,2000,g  6.6,2.0
# From MPEC 2025-W75
1P/Halley,e,162.1625,59.4853,112.3838,17.85815,0.0130602,0.96796408,190.2300,01/09.0/2026,2000,g  5.5,3.2
# From MPEC 2025-XC7
2P/Encke,e,11.3469,334.0175,187.2803,2.217999,0.2983747,0.84723534,241.4744,01/09.0/2026,2000,g 11.5,6.0
# From AJ 76, 1135
3D-A/Biela,e,7.2156,276.6828,192.1410,3.551595,0.1472546,0.76712299,59.3239,01/09.0/2026,2000,g 11.0,6.0
# From AJ 76, 1135
3D-B/Biela,e,7.8797,276.2013,192.2603,3.540590,0.1479417,0.76785636,28.8377,01/09.0/2026,2000,g 11.0,6.0
# From MPEC 2025-W75
4P/Faye,e,8.0003,192.8991,207.1577,3.830568,0.1314647,0.57605863,208.1345,01/09.0/2026,2000,g  8.0,6.0
# From MPEC 2025-W75
6P/d'Arrest,e,19.5028,138.9527,178.0351,3.497676,0.1506727,0.61212782,237.4688,01/09.0/2026,2000,g  7.5,16.0
# From MPEC 2026-A24
7P/Pons-Winnecke,e,22.0930,92.9249,173.8567,3.348739,0.1608356,0.65996695,264.6298,01/09.0/2026,2000,g 10.0,6.0
# From MPEC 2025-W75
8P/Tuttle,e,54.9918,270.1925,207.4694,5.706180,0.0723079,0.82072213,115.2628,01/09.0/2026,2000,g  8.0,8.0
# From MPEC 2025-YF1
9P/Tempel,e,10.5437,67.0889,184.5040,3.298758,0.1645047,0.46799245,234.6524,01/09.0/2026,2000,g  5.5,10.0
# From MPEC 2026-A24
10P/Tempel,e,12.0272,117.7980,195.4770,3.064531,0.1837207,0.53739943,322.3139,01/09.0/2026,2000,g  5.0,10.0
# From MPEC 2025-W75
11P/Tempel-Swift-LINEAR,e,14.4311,238.8579,168.0609,3.282791,0.1657064,0.57736656,309.4728,01/09.0/2026,2000,g 17.0,4.0
# From MPEC 2026-A24
12P/Pons-Brooks,e,74.1793,255.8600,199.0211,17.25674,0.0137488,0.95471664,8.6319,01/09.0/2026,2000,g  5.0,6.0
# From MPEC 2025-W75
13P/Olbers,e,44.6625,85.8455,64.4264,16.93117,0.0141473,0.93058173,7.8923,01/09.0/2026,2000,g  5.0,6.0
# From MPEC 2025-W75
14P/Wolf,e,27.9176,202.0143,159.2051,4.255884,0.1122586,0.35654692,331.5937,01/09.0/2026,2000,g  5.5,12.0
# From MPEC 2025-W75
15P/Finlay,e,6.7858,13.7335,347.8702,3.511509,0.1497833,0.71591290,245.8845,01/09.0/2026,2000,g 12.0,4.0
# From MPEC 2025-W75
16P/Brooks,e,3.0098,138.8138,245.3778,3.662670,0.1406071,0.48537032,242.8502,01/09.0/2026,2000,g  7.5,10.0
# From MPEC 2025-W75
17P/Holmes,e,19.0047,326.6003,24.5966,3.642349,0.1417855,0.42612410,253.2651,01/09.0/2026,2000,g 10.0,6.0
# From QJ 19, 80
18D/Perrine-Mrkos,e,17.663,158.450,238.183,3.87938,0.128992,0.5894350,64.227,01/09.0/2026,2000,g  9.0,4.0
# From MPEC 2025-W75
19P/Borrelly,e,29.3110,74.2157,352.0157,3.608669,0.1437751,0.63764442,206.5396,01/09.0/2026,2000,g  4.5,10.0
# From MPEC 2025-W75
21P/Giacobini-Zinner,e,32.0541,195.3062,172.9396,3.491276,0.1510872,0.71109218,43.7610,01/09.0/2026,2000,g  9.0,6.0
# From MPEC 2026-A24
22P/Kopff,e,4.9903,119.9143,163.5124,3.380734,0.1585578,0.57304678,217.1466,01/09.0/2026,2000,g  3.0,10.4
# From MPEC 2025-W75
23P/Brorsen-Metcalf,e,19.4974,311.0615,130.0975,16.94540,0.0141295,0.97253774,0.0000,06/22.3131/2059,2000,g  7.8,3.2
# From MPEC 2026-A24
24P/Schaumasse,e,11.5022,78.2711,58.4825,4.058088,0.1205652,0.70825077,0.0794,01/09.0/2026,2000,g  6.5,14.0
# From MPEC 2025-W75
26P/Grigg-Skjellerup,e,22.4433,211.5273,2.1133,3.014063,0.1883543,0.64074766,140.4483,01/09.0/2026,2000,g 12.0,16.0
# From MPEC 2025-W75
27P/Crommelin,e,29.4155,250.6912,195.8601,9.170905,0.0354883,0.91956009,187.0591,01/09.0/2026,2000,g 12.0,8.0
# From MPEC 2025-W75
28P/Neujmin,e,14.2886,346.4225,347.4276,6.978651,0.0534622,0.77247379,94.4440,01/09.0/2026,2000,g  8.5,6.0
# From MPEC 2026-A24
29P/Schwassmann-Wachmann,e,9.3552,312.4016,51.8195,6.057762,0.0661052,0.04300573,161.9099,01/09.0/2026,2000,g  4.0,4.0
# From MPEC 2025-W75
30P/Reinmuth,e,8.0536,117.2294,9.5417,3.736443,0.1364635,0.51444759,69.5572,01/09.0/2026,2000,g  9.5,6.0
# From MPEC 2025-W75
31P/Schwassmann-Wachmann,e,4.5497,114.1131,17.9953,4.229662,0.1133041,0.19362750,269.3477,01/09.0/2026,2000,g  5.0,8.0
# From MPEC 2025-W75
32P/ComasSola,e,9.9185,54.5332,54.7363,4.555699,0.1013611,0.55531786,63.6809,01/09.0/2026,2000,g  6.5,8.0
# From MPEC 2025-W75
33P/Daniel,e,22.2939,66.2797,20.2623,4.091351,0.1190979,0.45182793,50.5136,01/09.0/2026,2000,g 10.0,12.0
# From MPEC 2025-W75
36P/Whipple,e,9.9442,181.8152,201.2014,4.142065,0.1169173,0.26786163,239.4201,01/09.0/2026,2000,g  8.5,6.0
# From MPEC 2025-W75
37P/Forbes,e,8.9478,314.5438,330.0750,3.461643,0.1530314,0.53249991,69.6016,01/09.0/2026,2000,g 10.5,4.8
# From MPEC 2025-W75
38P/Stephan-Oterma,e,18.4092,77.8675,359.6135,11.27088,0.0260476,0.85966521,68.0618,01/09.0/2026,2000,g  3.5,12.0
# From MPEC 2025-W75
39P/Oterma,e,1.7348,289.0953,117.6869,6.961335,0.0536618,0.16599486,44.2972,01/09.0/2026,2000,g  7.0,6.0
# From MPEC 2026-A24
40P/Vaisala,e,11.6404,128.9009,52.0590,4.943756,0.0896641,0.63109273,5.1987,01/09.0/2026,2000,g  5.5,12.0
# From MPEC 2025-W75
41P/Tuttle-Giacobini-Kresak,e,9.2165,140.9760,62.2052,3.087549,0.1816701,0.65981751,220.5063,01/09.0/2026,2000,g 10.0,16.0
# From MPEC 2025-W75
42P/Neujmin,e,3.9884,150.1552,147.1240,4.879982,0.0914275,0.58408645,359.4573,01/09.0/2026,2000,g 13.0,6.0
# From MPEC 2026-A24
43P/Wolf-Harrington,e,9.3300,243.9765,223.7822,4.329663,0.1094014,0.43582024,17.2253,01/09.0/2026,2000,g  8.0,6.0
# From MPEC 2025-W75
44P/Reinmuth,e,5.8957,286.4196,57.9693,3.687863,0.1391688,0.42669178,189.0476,01/09.0/2026,2000,g  8.3,6.0
# From MPEC 2025-W75
45P/Honda-Mrkos-Pajdusakova,e,4.3247,87.6635,327.9745,3.056908,0.1844083,0.81750309,249.4095,01/09.0/2026,2000,g 13.5,8.0
# From MPEC 2025-W75
46P/Wirtanen,e,11.7490,82.1638,356.3568,3.092664,0.1812195,0.65862226,108.7167,01/09.0/2026,2000,g 14.0,6.0
# From MPEC 2026-A24
47P/Ashbrook-Jackson,e,13.0396,356.8811,357.9175,4.116236,0.1180195,0.31795617,8.6153,01/09.0/2026,2000,g  1.0,11.2
# From MPEC 2026-A24
48P/Johnson,e,12.2018,110.0632,216.7999,3.499559,0.1505512,0.42650760,47.0199,01/09.0/2026,2000,g 10.0,6.0
# From MPEC 2026-A24
49P/Arend-Rigaux,e,19.0597,118.7906,332.9280,3.569033,0.1461767,0.59893006,39.9654,01/09.0/2026,2000,g 11.3,4.4
# From MPEC 2025-W75
50P/Arend,e,19.1007,355.1445,49.3033,4.085762,0.1193423,0.52955986,72.3778,01/09.0/2026,2000,g  9.5,6.0
# From MPEC 2025-W75
